<?xml version="1.0" encoding="UTF-8"?>
<ndm xmlns:xsi="http://www.w3.org/2001/XMLSchema-instance" xsi:noNamespaceSchemaLocation="https://sanaregistry.org/r/ndmxml_unqualified/ndmxml-2.0.0-master-2.0.xsd">
<omm id="CCSDS_OMM_VERS" version="2.0">
<header><CREATION_DATE/><ORIGINATOR/></header><body><segment><metadata><OBJECT_NAME>KUIPER-00125</OBJECT_NAME><OBJECT_ID>2025-228H</OBJECT_ID><CENTER_NAME>EARTH</CENTER_NAME><REF_FRAME>TEME</REF_FRAME><TIME_SYSTEM>UTC</TIME_SYSTEM><MEAN_ELEMENT_THEORY>SGP4</MEAN_ELEMENT_THEORY></metadata><data><meanElements><EPOCH>2026-01-01T08:00:01.999872</EPOCH><MEAN_MOTION>15.34745015</MEAN_MOTION><ECCENTRICITY>.00054736</ECCENTRICITY><INCLINATION>51.8790</INCLINATION><RA_OF_ASC_NODE>285.7873</RA_OF_ASC_NODE><ARG_OF_PERICENTER>104.2871</ARG_OF_PERICENTER><MEAN_ANOMALY>181.7342</MEAN_ANOMALY></meanElements><tleParameters><EPHEMERIS_TYPE>0</EPHEMERIS_TYPE><CLASSIFICATION_TYPE>U</CLASSIFICATION_TYPE><NORAD_CAT_ID>65954</NORAD_CAT_ID><ELEMENT_SET_NO>999</ELEMENT_SET_NO><REV_AT_EPOCH>548</REV_AT_EPOCH><BSTAR>-.37382002E-1</BSTAR><MEAN_MOTION_DOT>-.1165204E-1</MEAN_MOTION_DOT><MEAN_MOTION_DDOT>0</MEAN_MOTION_DDOT></tleParameters></data></segment></body></omm>
<omm id="CCSDS_OMM_VERS" version="2.0">
<header><CREATION_DATE/><ORIGINATOR/></header><body><segment><metadata><OBJECT_NAME>KUIPER-00126</OBJECT_NAME><OBJECT_ID>2025-228J</OBJECT_ID><CENTER_NAME>EARTH</CENTER_NAME><REF_FRAME>TEME</REF_FRAME><TIME_SYSTEM>UTC</TIME_SYSTEM><MEAN_ELEMENT_THEORY>SGP4</MEAN_ELEMENT_THEORY></metadata><data><meanElements><EPOCH>2026-01-01T04:46:57.342720</EPOCH><MEAN_MOTION>14.79932015</MEAN_MOTION><ECCENTRICITY>.00005863</ECCENTRICITY><INCLINATION>51.9004</INCLINATION><RA_OF_ASC_NODE>299.0534</RA_OF_ASC_NODE><ARG_OF_PERICENTER>76.3983</ARG_OF_PERICENTER><MEAN_ANOMALY>283.7045</MEAN_ANOMALY></meanElements><tleParameters><EPHEMERIS_TYPE>0</EPHEMERIS_TYPE><CLASSIFICATION_TYPE>U</CLASSIFICATION_TYPE><NORAD_CAT_ID>65955</NORAD_CAT_ID><ELEMENT_SET_NO>999</ELEMENT_SET_NO><REV_AT_EPOCH>1323</REV_AT_EPOCH><BSTAR>.88997047E-3</BSTAR><MEAN_MOTION_DOT>.657E-4</MEAN_MOTION_DOT><MEAN_MOTION_DDOT>0</MEAN_MOTION_DDOT></tleParameters></data></segment></body></omm>
<omm id="CCSDS_OMM_VERS" version="2.0">
<header><CREATION_DATE/><ORIGINATOR/></header><body><segment><metadata><OBJECT_NAME>KUIPER-00127</OBJECT_NAME><OBJECT_ID>2025-228K</OBJECT_ID><CENTER_NAME>EARTH</CENTER_NAME><REF_FRAME>TEME</REF_FRAME><TIME_SYSTEM>UTC</TIME_SYSTEM><MEAN_ELEMENT_THEORY>SGP4</MEAN_ELEMENT_THEORY></metadata><data><meanElements><EPOCH>2025-12-31T01:52:41.959488</EPOCH><MEAN_MOTION>14.97947708</MEAN_MOTION><ECCENTRICITY>.0005939</ECCENTRICITY><INCLINATION>51.8953</INCLINATION><RA_OF_ASC_NODE>300.3017</RA_OF_ASC_NODE><ARG_OF_PERICENTER>122.3351</ARG_OF_PERICENTER><MEAN_ANOMALY>237.8195</MEAN_ANOMALY></meanElements><tleParameters><EPHEMERIS_TYPE>0</EPHEMERIS_TYPE><CLASSIFICATION_TYPE>U</CLASSIFICATION_TYPE><NORAD_CAT_ID>65956</NORAD_CAT_ID><ELEMENT_SET_NO>999</ELEMENT_SET_NO><REV_AT_EPOCH>1312</REV_AT_EPOCH><BSTAR>.17026182E-2</BSTAR><MEAN_MOTION_DOT>.20098E-3</MEAN_MOTION_DOT><MEAN_MOTION_DDOT>0</MEAN_MOTION_DDOT></tleParameters></data></segment></body></omm>
<omm id="CCSDS_OMM_VERS" version="2.0">
<header><CREATION_DATE/><ORIGINATOR/></header><body><segment><metadata><OBJECT_NAME>KUIPER-00128</OBJECT_NAME><OBJECT_ID>2025-228L</OBJECT_ID><CENTER_NAME>EARTH</CENTER_NAME><REF_FRAME>TEME</REF_FRAME><TIME_SYSTEM>UTC</TIME_SYSTEM><MEAN_ELEMENT_THEORY>SGP4</MEAN_ELEMENT_THEORY></metadata><data><meanElements><EPOCH>2026-01-01T08:00:01.999872</EPOCH><MEAN_MOTION>14.88982846</MEAN_MOTION><ECCENTRICITY>.00030696</ECCENTRICITY><INCLINATION>51.8973</INCLINATION><RA_OF_ASC_NODE>291.3505</RA_OF_ASC_NODE><ARG_OF_PERICENTER>108.1944</ARG_OF_PERICENTER><MEAN_ANOMALY>198.5895</MEAN_ANOMALY></meanElements><tleParameters><EPHEMERIS_TYPE>0</EPHEMERIS_TYPE><CLASSIFICATION_TYPE>U</CLASSIFICATION_TYPE><NORAD_CAT_ID>65957</NORAD_CAT_ID><ELEMENT_SET_NO>999</ELEMENT_SET_NO><REV_AT_EPOCH>487</REV_AT_EPOCH><BSTAR>-.31513895E-2</BSTAR><MEAN_MOTION_DOT>-.30043E-3</MEAN_MOTION_DOT><MEAN_MOTION_DDOT>0</MEAN_MOTION_DDOT></tleParameters></data></segment></body></omm>
<omm id="CCSDS_OMM_VERS" version="2.0">
<header><CREATION_DATE/><ORIGINATOR/></header><body><segment><metadata><OBJECT_NAME>KUIPER-00129</OBJECT_NAME><OBJECT_ID>2025-228M</OBJECT_ID><CENTER_NAME>EARTH</CENTER_NAME><REF_FRAME>TEME</REF_FRAME><TIME_SYSTEM>UTC</TIME_SYSTEM><MEAN_ELEMENT_THEORY>SGP4</MEAN_ELEMENT_THEORY></metadata><data><meanElements><EPOCH>2026-01-01T08:00:01.999872</EPOCH><MEAN_MOTION>15.07829162</MEAN_MOTION><ECCENTRICITY>.00017587</ECCENTRICITY><INCLINATION>51.8975</INCLINATION><RA_OF_ASC_NODE>287.9354</RA_OF_ASC_NODE><ARG_OF_PERICENTER>44.0572</ARG_OF_PERICENTER><MEAN_ANOMALY>288.0209</MEAN_ANOMALY></meanElements><tleParameters><EPHEMERIS_TYPE>0</EPHEMERIS_TYPE><CLASSIFICATION_TYPE>U</CLASSIFICATION_TYPE><NORAD_CAT_ID>65958</NORAD_CAT_ID><ELEMENT_SET_NO>999</ELEMENT_SET_NO><REV_AT_EPOCH>585</REV_AT_EPOCH><BSTAR>-.94637505E-2</BSTAR><MEAN_MOTION_DOT>-.143996E-2</MEAN_MOTION_DOT><MEAN_MOTION_DDOT>0</MEAN_MOTION_DDOT></tleParameters></data></segment></body></omm>
<omm id="CCSDS_OMM_VERS" version="2.0">
<header><CREATION_DATE/><ORIGINATOR/></header><body><segment><metadata><OBJECT_NAME>KUIPER-00130</OBJECT_NAME><OBJECT_ID>2025-228N</OBJECT_ID><CENTER_NAME>EARTH</CENTER_NAME><REF_FRAME>TEME</REF_FRAME><TIME_SYSTEM>UTC</TIME_SYSTEM><MEAN_ELEMENT_THEORY>SGP4</MEAN_ELEMENT_THEORY></metadata><data><meanElements><EPOCH>2026-01-01T08:00:01.999872</EPOCH><MEAN_MOTION>14.99217402</MEAN_MOTION><ECCENTRICITY>.00063807</ECCENTRICITY><INCLINATION>51.8915</INCLINATION><RA_OF_ASC_NODE>289.4315</RA_OF_ASC_NODE><ARG_OF_PERICENTER>107.1535</ARG_OF_PERICENTER><MEAN_ANOMALY>211.3399</MEAN_ANOMALY></meanElements><tleParameters><EPHEMERIS_TYPE>0</EPHEMERIS_TYPE><CLASSIFICATION_TYPE>U</CLASSIFICATION_TYPE><NORAD_CAT_ID>65959</NORAD_CAT_ID><ELEMENT_SET_NO>999</ELEMENT_SET_NO><REV_AT_EPOCH>528</REV_AT_EPOCH><BSTAR>-.92782773E-1</BSTAR><MEAN_MOTION_DOT>-.1058287E-1</MEAN_MOTION_DOT><MEAN_MOTION_DDOT>0</MEAN_MOTION_DDOT></tleParameters></data></segment></body></omm>
<omm id="CCSDS_OMM_VERS" version="2.0">
<header><CREATION_DATE/><ORIGINATOR/></header><body><segment><metadata><OBJECT_NAME>KUIPER-00134</OBJECT_NAME><OBJECT_ID>2025-228P</OBJECT_ID><CENTER_NAME>EARTH</CENTER_NAME><REF_FRAME>TEME</REF_FRAME><TIME_SYSTEM>UTC</TIME_SYSTEM><MEAN_ELEMENT_THEORY>SGP4</MEAN_ELEMENT_THEORY></metadata><data><meanElements><EPOCH>2026-01-01T04:14:50.219232</EPOCH><MEAN_MOTION>15.36286974</MEAN_MOTION><ECCENTRICITY>.00072554</ECCENTRICITY><INCLINATION>51.8785</INCLINATION><RA_OF_ASC_NODE>286.8210</RA_OF_ASC_NODE><ARG_OF_PERICENTER>84.7753</ARG_OF_PERICENTER><MEAN_ANOMALY>275.4061</MEAN_ANOMALY></meanElements><tleParameters><EPHEMERIS_TYPE>0</EPHEMERIS_TYPE><CLASSIFICATION_TYPE>U</CLASSIFICATION_TYPE><NORAD_CAT_ID>65960</NORAD_CAT_ID><ELEMENT_SET_NO>999</ELEMENT_SET_NO><REV_AT_EPOCH>1340</REV_AT_EPOCH><BSTAR>.17789803E-2</BSTAR><MEAN_MOTION_DOT>.6411E-3</MEAN_MOTION_DOT><MEAN_MOTION_DDOT>0</MEAN_MOTION_DDOT></tleParameters></data></segment></body></omm>
<omm id="CCSDS_OMM_VERS" version="2.0">
<header><CREATION_DATE/><ORIGINATOR/></header><body><segment><metadata><OBJECT_NAME>KUIPER-00135</OBJECT_NAME><OBJECT_ID>2025-228Q</OBJECT_ID><CENTER_NAME>EARTH</CENTER_NAME><REF_FRAME>TEME</REF_FRAME><TIME_SYSTEM>UTC</TIME_SYSTEM><MEAN_ELEMENT_THEORY>SGP4</MEAN_ELEMENT_THEORY></metadata><data><meanElements><EPOCH>2026-01-01T08:00:01.999872</EPOCH><MEAN_MOTION>14.99687059</MEAN_MOTION><ECCENTRICITY>.00055103</ECCENTRICITY><INCLINATION>51.8953</INCLINATION><RA_OF_ASC_NODE>289.7033</RA_OF_ASC_NODE><ARG_OF_PERICENTER>114.5976</ARG_OF_PERICENTER><MEAN_ANOMALY>327.2088</MEAN_ANOMALY></meanElements><tleParameters><EPHEMERIS_TYPE>0</EPHEMERIS_TYPE><CLASSIFICATION_TYPE>U</CLASSIFICATION_TYPE><NORAD_CAT_ID>65961</NORAD_CAT_ID><ELEMENT_SET_NO>999</ELEMENT_SET_NO><REV_AT_EPOCH>287</REV_AT_EPOCH><BSTAR>-.11318617E+0</BSTAR><MEAN_MOTION_DOT>-.1302035E-1</MEAN_MOTION_DOT><MEAN_MOTION_DDOT>0</MEAN_MOTION_DDOT></tleParameters></data></segment></body></omm>

</ndm>
