KUIPER-00125            
1 65954U 25228H   26001.33335648 -.01165204  00000+0 -37382-1 0  9996
2 65954  51.8790 285.7873 0005473 104.2871 181.7342 15.34745015  5481
KUIPER-00126            
1 65955U 25228J   26001.19927480  .00006570  00000+0  88997-3 0  9999
2 65955  51.9004 299.0534 0000586  76.3983 283.7045 14.79932015 13237
KUIPER-00127            
1 65956U 25228K   25365.07826342  .00020098  00000+0  17026-2 0  9999
2 65956  51.8953 300.3017 0005939 122.3351 237.8195 14.97947708 13129
KUIPER-00128            
1 65957U 25228L   26001.33335648 -.00030043  00000+0 -31514-2 0  9992
2 65957  51.8973 291.3505 0003069 108.1944 198.5895 14.88982846  4879
KUIPER-00129            
1 65958U 25228M   26001.33335648 -.00143996  00000+0 -94638-2 0  9991
2 65958  51.8975 287.9354 0001758  44.0572 288.0209 15.07829162  5859
KUIPER-00130            
1 65959U 25228N   26001.33335648 -.01058287  00000+0 -92783-1 0  9999
2 65959  51.8915 289.4315 0006380 107.1535 211.3399 14.99217402  5288
KUIPER-00134            
1 65960U 25228P   26001.17697013  .00064110  00000+0  17790-2 0  9995
2 65960  51.8785 286.8210 0007255  84.7753 275.4061 15.36286974 13406
KUIPER-00135            
1 65961U 25228Q   26001.33335648 -.01302035  00000+0 -11319+0 0  9999
2 65961  51.8953 289.7033 0005510 114.5976 327.2088 14.99687059  2871
